IRIDIUM 180             
1 43922U 19002A   24081.44892233  .00000217  00000+0  70318-4 0  9994
2 43922  86.4005 335.3587 0002041  83.5470 276.5958 14.34217681271787
IRIDIUM 176             
1 43923U 19002B   24081.50736288  .00001795  00000+0  28098-3 0  9998
2 43923  86.6132 335.3616 0002185  90.9283 269.2184 14.72214806278940
IRIDIUM 168             
1 43924U 19002C   24081.44257556  .00000342  00000+0  11514-3 0  9990
2 43924  86.4008 335.4153 0002079  85.7254 274.4179 14.34220571271769
IRIDIUM 173             
1 43925U 19002D   24081.42989149  .00000261  00000+0  86248-4 0  9996
2 43925  86.4004 335.3431 0002059  83.8302 276.3128 14.34217889271746
IRIDIUM 169             
1 43926U 19002E   24081.34591595  .00000685  00000+0  21725-3 0  9990
2 43926  86.4286   6.9674 0003631 123.4608 236.6938 14.38612285272647
IRIDIUM 172             
1 43927U 19002F   24081.42355107  .00000129  00000+0  38989-4 0  9991
2 43927  86.4006 335.3509 0002097  84.6284 275.5151 14.34218679271752
